FENGYUN 1C DEB          
1 38717U 99025ETJ 17345.32348764  .00000549  00000-0  35997-3 0  9992
2 38717  99.0196 289.0069 0069634 252.0906 262.6943 14.05172177365740
